ORBCOMM FM103 [+]       
1 40091U 14040F   24112.35842802  .00002526  00000+0  59966-3 0  9997
2 40091  47.0042 207.4149 0001715 173.3371 186.7537 14.56495910502579
ORBCOMM FM114 [+]       
1 41179U 15081A   24112.04929449  .00002774  00000+0  65468-3 0  9999
2 41179  47.0008 118.1613 0002089 241.8407 118.2267 14.56504421442895
ORBCOMM FM119 [-]       
1 41180U 15081B   24112.15617208  .00002479  00000+0  58950-3 0  9990
2 41180  47.0015  26.8451 0001963 278.5284  81.5378 14.56479586444160
ORBCOMM FM105 [-]       
1 41181U 15081C   24111.76083162  .00001244  00000+0  40367-3 0  9995
2 41181  47.0029 353.8206 0002174 240.7336 119.3327 14.44331367439665
ORBCOMM FM110 [+]       
1 41182U 15081D   24112.09504316  .00002201  00000+0  52736-3 0  9999
2 41182  47.0004 117.3549 0001786 356.6291   3.4581 14.56500448442779
ORBCOMM FM118 [+]       
1 41183U 15081E   24112.41525657  .00001898  00000+0  45986-3 0  9997
2 41183  47.0029 116.1480 0002067 357.5375   2.5499 14.56498436442922
ORBCOMM FM112 [+]       
1 41184U 15081F   24112.13392070  .00003380  00000+0  78961-3 0  9995
2 41184  46.9994  26.1748 0001497 266.9532  93.1182 14.56500328444104
ORBCOMM FM113 [+]       
1 41185U 15081G   24112.11102075  .00003039  00000+0  71378-3 0  9994
2 41185  47.0016  26.5458 0001536 284.8794  75.1921 14.56495385444081
